TYVAK-0130              
1 48606U 21041BF  26068.48452211  .00008857  00000+0  35198-3 0  9997
2 48606  52.9967 128.6030 0008953 215.1647 144.8760 15.26049141265157
STARLINK-31025          
1 58634U 23203S   26068.02679154 -.00001194  00000+0 -33876-4 0  9999
2 58634  42.9998  70.4447 0000593 277.9710  82.1075 15.27576528124698
